BEIDOU-2 IGSO-1 (C06)   
1 36828U 10036A   24034.82757685 -.00000092  00000+0  00000+0 0  9998
2 36828  54.2476 170.7850 0039011 193.2231 175.7336  1.00265778 49562
BEIDOU-2 G4 (C04)       
1 37210U 10057A   24035.52668969 -.00000095  00000+0  00000+0 0  9994
2 37210   1.5252  66.4107 0006611 199.6146 217.8540  1.00271694 48621
BEIDOU-2 IGSO-2 (C07)   
1 37256U 10068A   24034.71925139 -.00000165  00000+0  00000+0 0  9999
2 37256  49.1257 282.4577 0031143 213.4433   2.7319  1.00293669 48112
BEIDOU-2 IGSO-3 (C08)   
1 37384U 11013A   24034.74549762 -.00000150  00000+0  00000+0 0  9993
2 37384  61.1593  48.4092 0028215 184.5931 275.8195  1.00292876 46998
BEIDOU-2 IGSO-4 (C09)   
1 37763U 11038A   24034.84007598 -.00000002  00000+0  00000+0 0  9994
2 37763  54.5552 173.3683 0118222 226.7518 130.5052  1.00287283 45974
BEIDOU-2 IGSO-5 (C10)   
1 37948U 11073A   24033.65675027 -.00000122  00000+0  00000+0 0  9997
2 37948  49.2575 282.1498 0093540 220.7166 320.8686  1.00282391 44450
BEIDOU-2 G5 (C05)       
1 38091U 12008A   24034.88664719  .00000074  00000+0  00000+0 0  9993
2 38091   2.0750  70.4657 0008978 227.9105 213.0624  1.00271141 43703
BEIDOU-2 M3 (C11)       
1 38250U 12018A   24035.23080687 -.00000078  00000+0  00000+0 0  9992
2 38250  56.4243 333.7979 0023696 267.5035  92.2360  1.86231246 80204
BEIDOU-2 M4 (C12)       
1 38251U 12018B   24033.55073109 -.00000081  00000+0  00000+0 0  9991
2 38251  56.3340 333.1356 0014797 273.2589  86.5844  1.86232072 79822
BEIDOU-2 M6 (C14)       
1 38775U 12050B   24034.87124222 -.00000021  00000+0  00000+0 0  9991
2 38775  55.8057  91.6551 0013015 327.0882  32.8960  1.86231063 77562
BEIDOU-2 G6 (C02)       
1 38953U 12059A   24034.87480025 -.00000159  00000+0  00000+0 0  9996
2 38953   2.2151  81.3825 0010131 293.2090 157.9116  1.00272174 41244
BEIDOU-3S IGSO-1S (C31) 
1 40549U 15019A   24034.69688957 -.00000169  00000+0  00000+0 0  9994
2 40549  50.8218 305.7802 0035025 194.1057 340.0999  1.00278998 32402
BEIDOU-3S M2S (C58)     
1 40748U 15037A   24034.28907950 -.00000080  00000+0  00000+0 0  9999
2 40748  55.5692 331.6162 0010896 265.7673  94.1220  1.86233101 58016
BEIDOU-3S M1S (C57)     
1 40749U 15037B   24035.09629259 -.00000078  00000+0  00000+0 0  9990
2 40749  55.5718 331.5755 0006891 331.6015  28.3739  1.86232956 58028
BEIDOU-3S IGSO-2S (C56) 
1 40938U 15053A   24017.60469617 -.00000107  00000+0  00000+0 0  9998
2 40938  50.5932 269.1737 0046153 191.7705 325.9662  1.00252427 30519
BEIDOU-2 IGSO-6 (C13)   
1 41434U 16021A   24033.01166094 -.00000114  00000+0  00000+0 0  9990
2 41434  58.9717  46.7260 0049501 226.2454 315.0184  1.00254871 28790
BEIDOU-2 G7 (C03)       
1 41586U 16037A   24035.49855755 -.00000336  00000+0  00000+0 0  9994
2 41586   1.5850  67.5972 0010256 318.1018  38.3341  1.00264431 28123
BEIDOU-3 M1 (C19)       
1 43001U 17069A   24035.17437178 -.00000019  00000+0  00000+0 0  9992
2 43001  55.9564  91.7246 0011225 292.0991  67.8472  1.86231349 42519
BEIDOU-3 M2 (C20)       
1 43002U 17069B   24034.03744464 -.00000023  00000+0  00000+0 0  9991
2 43002  55.9552  91.7979 0008446 311.7085  48.2844  1.86231069 42485
BEIDOU-3 M7 (C27)       
1 43107U 18003A   24033.25048733 -.00000083  00000+0  00000+0 0  9991
2 43107  55.0274 332.3018 0004013  46.9133 313.1338  1.86232386 41224
BEIDOU-3 M8 (C28)       
1 43108U 18003B   24034.80068168 -.00000079  00000+0  00000+0 0  9993
2 43108  55.0191 332.2348 0004083 279.1716  80.7950  1.86230827 41261
BEIDOU-3 M4 (C22)       
1 43207U 18018A   24034.16851063 -.00000023  00000+0  00000+0 0  9991
2 43207  55.9147  91.8520 0005131 332.1837  27.8538  1.86231346 40631
BEIDOU-3 M3 (C21)       
1 43208U 18018B   24034.77205606 -.00000021  00000+0  00000+0 0  9993
2 43208  55.9145  91.8362 0008673 300.5919  59.3876  1.86231462 40643
BEIDOU-3 M9 (C29)       
1 43245U 18029A   24034.45717983 -.00000079  00000+0  00000+0 0  9990
2 43245  54.9153 329.9814 0001642 316.3960  43.6063  1.86232579 39797
BEIDOU-3 M10 (C30)      
1 43246U 18029B   24034.38701752 -.00000079  00000+0  00000+0 0  9990
2 43246  54.9120 330.0115 0004987 354.9112   5.0990  1.86232704 39781
BEIDOU-2 IGSO-7 (C16)   
1 43539U 18057A   24034.82757685 -.00000095  00000+0  00000+0 0  9999
2 43539  55.1373 170.5427 0069632 230.5891 141.0377  1.00293965 20460
BEIDOU-3 M5 (C23)       
1 43581U 18062A   24034.07116979  .00000114  00000+0  00000+0 0  9995
2 43581  54.1523 211.7367 0001610 348.0827  11.9152  1.86228725 37527
BEIDOU-3 M6 (C24)       
1 43582U 18062B   24034.47457385  .00000115  00000+0  00000+0 0  9990
2 43582  54.1519 211.7123 0007067  40.0479 320.0066  1.86229661 37536
BEIDOU-3 M12 (C26)      
1 43602U 18067A   24034.94638326  .00000115  00000+0  00000+0 0  9996
2 43602  54.2412 210.3653 0008092  31.4343 328.6149  1.86231641 37029
BEIDOU-3 M11 (C25)      
1 43603U 18067B   24034.00634361  .00000113  00000+0  00000+0 0  9997
2 43603  54.2385 210.3626 0004815  28.7680 331.2581  1.86231575 37038
BEIDOU-3 M13 (C32)      
1 43622U 18072A   24035.04018034 -.00000020  00000+0  00000+0 0  9990
2 43622  55.8859  91.3574 0007897 287.1327  72.8463  1.86231132 36566
BEIDOU-3 M14 (C33)      
1 43623U 18072B   24035.44258762 -.00000018  00000+0  00000+0 0  9996
2 43623  55.8879  91.3369 0005162 306.0500  53.9683  1.86231146 36567
BEIDOU-3 M16 (C35)      
1 43647U 18078A   24033.99505232 -.00000080  00000+0  00000+0 0  9992
2 43647  54.8115 330.1067 0008077   7.0024 353.0242  1.86232263 36040
BEIDOU-3 M15 (C34)      
1 43648U 18078B   24034.66112542 -.00000078  00000+0  00000+0 0  9993
2 43648  54.8068 330.0870 0005017  10.2950 349.7302  1.86232092 36087
BEIDOU-3 G1 (C59)       
1 43683U 18085A   24035.51504856 -.00000263  00000+0  00000+0 0  9994
2 43683   1.8674 115.4929 0002636 320.1025  24.0030  1.00268523 19391
BEIDOU-3 M17 (C36)      
1 43706U 18093A   24033.19873644  .00000109  00000+0  00000+0 0  9993
2 43706  54.2350 211.6948 0006248 293.9445  65.9896  1.86228394 35417
BEIDOU-3 M18 (C37)      
1 43707U 18093B   24034.13905396  .00000114  00000+0  00000+0 0  9995
2 43707  54.2359 211.6546 0005958 335.5676  24.4060  1.86229856 35425
BEIDOU-2 G8 (C01)       
1 44231U 19027A   24035.51573985 -.00000231  00000+0  00000+0 0  9995
2 44231   1.6164  72.8285 0003804 178.9453 212.5900  1.00274322 17411
BEIDOU-3 IGSO-2 (C39)   
1 44337U 19035A   24034.93365980 -.00000109  00000+0  00000+0 0  9994
2 44337  55.1696 166.4474 0031647 201.7205 220.8686  1.00282898 17036
BEIDOU-3 M24 (C46)      
1 44542U 19061A   24033.67260945  .00000113  00000+0  00000+0 0  9990
2 44542  54.4624 211.9380 0008461  12.7082 347.3144  1.86231334 29670
BEIDOU-3 M23 (C45)      
1 44543U 19061B   24034.34643166  .00000116  00000+0  00000+0 0  9999
2 44543  54.4609 211.8846 0005251  11.8373 352.0305  1.86231747 29688
BEIDOU-3 IGSO-3 (C40)   
1 44709U 19073A   24034.10852304 -.00000168  00000+0  00000+0 0  9994
2 44709  56.2767 290.1539 0034909 181.2679 178.8073  1.00290787 15786
BEIDOU-3 M22 (C44)      
1 44793U 19078A   24034.59218837 -.00000079  00000+0  00000+0 0  9993
2 44793  54.6592 330.0346 0007254  15.2052 344.8316  1.86231862 28547
BEIDOU-3 M21 (C43)      
1 44794U 19078B   24034.18538467 -.00000080  00000+0  00000+0 0  9995
2 44794  54.6331 330.0275 0004980   2.8595 357.1588  1.86232522 28549
BEIDOU-3 M19 (C41)      
1 44864U 19090A   24031.84743722 -.00000025  00000+0  00000+0 0  9998
2 44864  55.8175  91.6434 0019026 276.3060 149.5653  1.86231732 28082
BEIDOU-3 M20 (C42)      
1 44865U 19090B   24033.82980181 -.00000024  00000+0  00000+0 0  9990
2 44865  55.8207  91.6103 0016634 287.9727 116.7442  1.86231661 28108
BEIDOU-3 G2 (C60)       
1 45344U 20017A   24034.90442272 -.00000124  00000+0  00000+0 0  9999
2 45344   2.1658  23.8653 0002500 268.6319 246.6763  1.00273044 14597
BEIDOU-3 G3 (C61)       
1 45807U 20040A   24035.49855767 -.00000337  00000+0  00000+0 0  9997
2 45807   0.6035  19.2402 0009178 295.0532 109.8555  1.00275521 13425
BEIDOU-3 G4             
1 56564U 23066A   24035.52692153 -.00000091  00000+0  00000+0 0  9999
2 56564   2.4590 288.2355 0002762 214.4788 341.2400  1.00271155  2741
BEIDOU-3 M25            
1 58654U 23207A   24035.34211819 -.00000020  00000+0  00000+0 0  9996
2 58654  55.0013  91.6351 0004278 266.1883  93.8277  1.86232083   755
BEIDOU-3 M26            
1 58655U 23207B   24035.14076605 -.00000021  00000+0  00000+0 0  9998
2 58655  55.0030  91.6272 0005334 253.8592 106.1467  1.86231517   739
